{
  "type": "FeatureCollection",
  "features": [
    {
      "type": "Feature",
      "properties": {
        "norad_id": 58647,
        "name": "TIANMU-1 13",
        "group": "weather",
        "lat": 45.37510823656834,
        "lon": -166.59241483555573,
        "alt_km": 491.3624597460903,
        "timestamp": "2025-12-12T05:47:28.415073+00:00",
        "meta_object_name": "TIANMU-1 13",
        "meta_object_id": "2023-205C",
        "meta_epoch": "2025-12-12T00:28:43.601376",
        "meta_mean_motion": 15.2451056,
        "meta_eccentricity": 0.00060552,
        "meta_inclination": 97.3627,
        "meta_ra_of_asc_node": 5.6621,
        "meta_arg_of_pericenter": 270.3522,
        "meta_mean_anomaly": 89.7022,
        "meta_ephemeris_type": 0,
        "meta_classification_type": "U",
        "meta_norad_cat_id": 58647,
        "meta_element_set_no": 999,
        "meta_rev_at_epoch": 10896,
        "meta_bstar": 0.00040281056,
        "meta_mean_motion_dot": 9.844e-05,
        "meta_mean_motion_ddot": 0,
        "tle_line1": "1 58647U 23205C   25346.01994909  .00009844  00000+0  40281-3 0  9995",
        "tle_line2": "2 58647  97.3627   5.6621 0006055 270.3522  89.7022 15.24510560108964"
      },
      "geometry": {
        "type": "Point",
        "coordinates": [
          -166.59241483555573,
          45.37510823656834
        ]
      }
    },
    {
      "type": "Feature",
      "properties": {
        "norad_id": 58648,
        "name": "TIANMU-1 14",
        "group": "weather",
        "lat": -44.74036651590742,
        "lon": 177.8734500986142,
        "alt_km": 496.02850407375536,
        "timestamp": "2025-12-12T05:47:28.415083+00:00",
        "meta_object_name": "TIANMU-1 14",
        "meta_object_id": "2023-205D",
        "meta_epoch": "2025-12-12T00:04:48.606240",
        "meta_mean_motion": 15.24494446,
        "meta_eccentricity": 0.00068601,
        "meta_inclination": 97.356,
        "meta_ra_of_asc_node": 4.9951,
        "meta_arg_of_pericenter": 275.8209,
        "meta_mean_anomaly": 84.2247,
        "meta_ephemeris_type": 0,
        "meta_classification_type": "U",
        "meta_norad_cat_id": 58648,
        "meta_element_set_no": 999,
        "meta_rev_at_epoch": 10896,
        "meta_bstar": 0.00041317062,
        "meta_mean_motion_dot": 0.00010096,
        "meta_mean_motion_ddot": 0,
        "tle_line1": "1 58648U 23205D   25346.00334035  .00010096  00000+0  41317-3 0  9995",
        "tle_line2": "2 58648  97.3560   4.9951 0006860 275.8209  84.2247 15.24494446108968"
      },
      "geometry": {
        "type": "Point",
        "coordinates": [
          177.8734500986142,
          -44.74036651590742
        ]
      }
    },
    {
      "type": "Feature",
      "properties": {
        "norad_id": 58660,
        "name": "TIANMU-1 19",
        "group": "weather",
        "lat": 64.82248525929325,
        "lon": -66.58422831371513,
        "alt_km": 478.1856660784797,
        "timestamp": "2025-12-12T05:47:28.415093+00:00",
        "meta_object_name": "TIANMU-1 19",
        "meta_object_id": "2023-208A",
        "meta_epoch": "2025-12-11T23:00:21.224736",
        "meta_mean_motion": 15.2782678,
        "meta_eccentricity": 0.0004079,
        "meta_inclination": 97.4384,
        "meta_ra_of_asc_node": 96.997,
        "meta_arg_of_pericenter": 256.6416,
        "meta_mean_anomaly": 103.4369,
        "meta_ephemeris_type": 0,
        "meta_classification_type": "U",
        "meta_norad_cat_id": 58660,
        "meta_element_set_no": 999,
        "meta_rev_at_epoch": 10870,
        "meta_bstar": 0.00049230808,
        "meta_mean_motion_dot": 0.00013316,
        "meta_mean_motion_ddot": 0,
        "tle_line1": "1 58660U 23208A   25345.95857899  .00013316  00000+0  49231-3 0  9994",
        "tle_line2": "2 58660  97.4384  96.9970 0004079 256.6416 103.4369 15.27826780108700"
      },
      "geometry": {
        "type": "Point",
        "coordinates": [
          -66.58422831371513,
          64.82248525929325
        ]
      }
    },
    {
      "type": "Feature",
      "properties": {
        "norad_id": 58661,
        "name": "TIANMU-1 20",
        "group": "weather",
        "lat": -6.207985918735086,
        "lon": -83.08732425427397,
        "alt_km": 482.0068100611279,
        "timestamp": "2025-12-12T05:47:28.415104+00:00",
        "meta_object_name": "TIANMU-1 20",
        "meta_object_id": "2023-208B",
        "meta_epoch": "2025-12-12T00:16:01.639776",
        "meta_mean_motion": 15.29019321,
        "meta_eccentricity": 0.00063289,
        "meta_inclination": 97.4322,
        "meta_ra_of_asc_node": 97.4964,
        "meta_arg_of_pericenter": 269.1784,
        "meta_mean_anomaly": 90.873,
        "meta_ephemeris_type": 0,
        "meta_classification_type": "U",
        "meta_norad_cat_id": 58661,
        "meta_element_set_no": 999,
        "meta_rev_at_epoch": 10878,
        "meta_bstar": 0.00050194983,
        "meta_mean_motion_dot": 0.00014088,
        "meta_mean_motion_ddot": 0,
        "tle_line1": "1 58661U 23208B   25346.01113009  .00014088  00000+0  50195-3 0  9999",
        "tle_line2": "2 58661  97.4322  97.4964 0006328 269.1784  90.8730 15.29019321108784"
      },
      "geometry": {
        "type": "Point",
        "coordinates": [
          -83.08732425427397,
          -6.207985918735086
        ]
      }
    },
    {
      "type": "Feature",
      "properties": {
        "norad_id": 58662,
        "name": "TIANMU-1 21",
        "group": "weather",
        "lat": -6.42283067705235,
        "lon": -81.21008056418053,
        "alt_km": 474.17243766571755,
        "timestamp": "2025-12-12T05:47:28.415114+00:00",
        "meta_object_name": "TIANMU-1 21",
        "meta_object_id": "2023-208C",
        "meta_epoch": "2025-12-12T00:16:30.940608",
        "meta_mean_motion": 15.31525493,
        "meta_eccentricity": 0.00059272,
        "meta_inclination": 97.437,
        "meta_ra_of_asc_node": 99.4019,
        "meta_arg_of_pericenter": 263.4233,
        "meta_mean_anomaly": 96.6334,
        "meta_ephemeris_type": 0,
        "meta_classification_type": "U",
        "meta_norad_cat_id": 58662,
        "meta_element_set_no": 999,
        "meta_rev_at_epoch": 10888,
        "meta_bstar": 0.00053698354,
        "meta_mean_motion_dot": 0.00016294,
        "meta_mean_motion_ddot": 0,
        "tle_line1": "1 58662U 23208C   25346.01146922  .00016294  00000+0  53698-3 0  9992",
        "tle_line2": "2 58662  97.4370  99.4019 0005927 263.4233  96.6334 15.31525493108881"
      },
      "geometry": {
        "type": "Point",
        "coordinates": [
          -81.21008056418053,
          -6.42283067705235
        ]
      }
    },
    {
      "type": "Feature",
      "properties": {
        "norad_id": 58663,
        "name": "TIANMU-1 22",
        "group": "weather",
        "lat": 63.22233401449108,
        "lon": -67.65845129696336,
        "alt_km": 478.7313677193433,
        "timestamp": "2025-12-12T05:47:28.415125+00:00",
        "meta_object_name": "TIANMU-1 22",
        "meta_object_id": "2023-208D",
        "meta_epoch": "2025-12-11T22:59:51.706176",
        "meta_mean_motion": 15.27583049,
        "meta_eccentricity": 0.00027006,
        "meta_inclination": 97.4378,
        "meta_ra_of_asc_node": 97.056,
        "meta_arg_of_pericenter": 291.3208,
        "meta_mean_anomaly": 68.7742,
        "meta_ephemeris_type": 0,
        "meta_classification_type": "U",
        "meta_norad_cat_id": 58663,
        "meta_element_set_no": 999,
        "meta_rev_at_epoch": 10871,
        "meta_bstar": 0.00046244291,
        "meta_mean_motion_dot": 0.00012408,
        "meta_mean_motion_ddot": 0,
        "tle_line1": "1 58663U 23208D   25345.95823734  .00012408  00000+0  46244-3 0  9990",
        "tle_line2": "2 58663  97.4378  97.0560 0002700 291.3208  68.7742 15.27583049108714"
      },
      "geometry": {
        "type": "Point",
        "coordinates": [
          -67.65845129696336,
          63.22233401449108
        ]
      }
    },
    {
      "type": "Feature",
      "properties": {
        "norad_id": 58700,
        "name": "TIANMU-1 15",
        "group": "weather",
        "lat": -69.14906067543026,
        "lon": -32.41837207393217,
        "alt_km": 496.70051451332256,
        "timestamp": "2025-12-12T05:47:28.415135+00:00",
        "meta_object_name": "TIANMU-1 15",
        "meta_object_id": "2024-004A",
        "meta_epoch": "2025-12-11T12:56:40.540704",
        "meta_mean_motion": 15.24670451,
        "meta_eccentricity": 0.00052437,
        "meta_inclination": 97.4631,
        "meta_ra_of_asc_node": 167.0136,
        "meta_arg_of_pericenter": 303.7498,
        "meta_mean_anomaly": 56.324,
        "meta_ephemeris_type": 0,
        "meta_classification_type": "U",
        "meta_norad_cat_id": 58700,
        "meta_element_set_no": 999,
        "meta_rev_at_epoch": 10716,
        "meta_bstar": 0.00086402607,
        "meta_mean_motion_dot": 0.00021326,
        "meta_mean_motion_ddot": 0,
        "tle_line1": "1 58700U 24004A   25345.53935811  .00021326  00000+0  86403-3 0  9991",
        "tle_line2": "2 58700  97.4631 167.0136 0005243 303.7498  56.3240 15.24670451107164"
      },
      "geometry": {
        "type": "Point",
        "coordinates": [
          -32.41837207393217,
          -69.14906067543026
        ]
      }
    }
  ]
}